{
  "norad_id": 49080,
  "name": "ONEWEB-0290",
  "history": [
    {
      "epoch": "2026-04-11T12:09:21.371904Z",
      "apogee_km": 1195.4032891780116,
      "perigee_km": 1192.0232152254284,
      "latitude_deg": -4.9550782297732756e-05,
      "longitude_deg": -2.970156009752878,
      "height_km": 1195.943814388895,
      "semi_major_axis_km": 7571.85025220172,
      "eccentricity": 0.0002232,
      "inclination_deg": 87.9189,
      "raan_deg": 19.0939,
      "arg_perigee_deg": 66.8493,
      "mean_anomaly_deg": 293.2873,
      "mean_motion_rev_day": 13.17649002
    },
    {
      "epoch": "2026-04-13T04:15:03.008160Z",
      "apogee_km": 1195.3520175028116,
      "perigee_km": 1192.1568307596572,
      "latitude_deg": -7.650838309226645e-06,
      "longitude_deg": 113.63002094237713,
      "height_km": 1195.998094546814,
      "semi_major_axis_km": 7571.891424131234,
      "eccentricity": 0.00021099,
      "inclination_deg": 87.9226,
      "raan_deg": 18.7642,
      "arg_perigee_deg": 65.9307,
      "mean_anomaly_deg": 294.2045,
      "mean_motion_rev_day": 13.17638255
    },
    {
      "epoch": "2026-04-14T03:56:34.840032Z",
      "apogee_km": 1195.360798757095,
      "perigee_km": 1192.1634886246793,
      "latitude_deg": 8.464612301619454e-05,
      "longitude_deg": 117.0779891343588,
      "height_km": 1195.989927944184,
      "semi_major_axis_km": 7571.899143690886,
      "eccentricity": 0.00021113,
      "inclination_deg": 87.9209,
      "raan_deg": 18.5678,
      "arg_perigee_deg": 65.3234,
      "mean_anomaly_deg": 294.8118,
      "mean_motion_rev_day": 13.1763624
    },
    {
      "epoch": "2026-04-15T16:23:32.840736Z",
      "apogee_km": 1195.2922647888154,
      "perigee_km": 1192.148429618257,
      "latitude_deg": -7.544085521259182e-05,
      "longitude_deg": -71.46210912285785,
      "height_km": 1195.9350184202758,
      "semi_major_axis_km": 7571.857347203536,
      "eccentricity": 0.0002076,
      "inclination_deg": 87.9189,
      "raan_deg": 18.2663,
      "arg_perigee_deg": 64.3414,
      "mean_anomaly_deg": 295.7931,
      "mean_motion_rev_day": 13.1764715
    },
    {
      "epoch": "2026-04-16T16:05:04.231104Z",
      "apogee_km": 1195.1858662991272,
      "perigee_km": 1192.2252758538361,
      "latitude_deg": 4.113056413858083e-05,
      "longitude_deg": -68.01199424476174,
      "height_km": 1195.912035618885,
      "semi_major_axis_km": 7571.842571076481,
      "eccentricity": 0.0001955,
      "inclination_deg": 87.9194,
      "raan_deg": 18.0702,
      "arg_perigee_deg": 62.2565,
      "mean_anomaly_deg": 297.8765,
      "mean_motion_rev_day": 13.17651007
    },
    {
      "epoch": "2026-04-17T17:35:56.472000Z",
      "apogee_km": 1195.1667704325628,
      "perigee_km": 1192.2425251881796,
      "latitude_deg": 6.586064250656151e-05,
      "longitude_deg": -91.98830602680088,
      "height_km": 1195.921935412674,
      "semi_major_axis_km": 7571.841647810371,
      "eccentricity": 0.0001931,
      "inclination_deg": 87.9195,
      "raan_deg": 17.8594,
      "arg_perigee_deg": 62.3596,
      "mean_anomaly_deg": 297.7732,
      "mean_motion_rev_day": 13.17651248
    },
    {
      "epoch": "2026-04-18T11:49:25.265856Z",
      "apogee_km": 1195.1593338601087,
      "perigee_km": 1192.252957587054,
      "latitude_deg": -4.787989808691594e-06,
      "longitude_deg": -6.257443070255052,
      "height_km": 1195.9390385787435,
      "semi_major_axis_km": 7571.843145723581,
      "eccentricity": 0.00019192,
      "inclination_deg": 87.9192,
      "raan_deg": 17.7087,
      "arg_perigee_deg": 62.8678,
      "mean_anomaly_deg": 297.2649,
      "mean_motion_rev_day": 13.17650857
    },
    {
      "epoch": "2026-04-19T18:48:20.155104Z",
      "apogee_km": 1195.1266771415158,
      "perigee_km": 1192.2857215731174,
      "latitude_deg": 8.377361879059265e-06,
      "longitude_deg": -112.51443076666042,
      "height_km": 1195.9447922708434,
      "semi_major_axis_km": 7571.843199357316,
      "eccentricity": 0.0001876,
      "inclination_deg": 87.9193,
      "raan_deg": 17.4528,
      "arg_perigee_deg": 62.4457,
      "mean_anomaly_deg": 297.6865,
      "mean_motion_rev_day": 13.17650843
    },
    {
      "epoch": "2026-04-20T11:12:27.995616Z",
      "apogee_km": 1195.1195471315787,
      "perigee_km": 1192.2894956445452,
      "latitude_deg": 7.611994106724187e-05,
      "longitude_deg": 0.6436880656576544,
      "height_km": 1195.9463566427248,
      "semi_major_axis_km": 7571.841521388062,
      "eccentricity": 0.00018688,
      "inclination_deg": 87.9194,
      "raan_deg": 17.3172,
      "arg_perigee_deg": 62.4785,
      "mean_anomaly_deg": 297.6537,
      "mean_motion_rev_day": 13.17651281
    },
    {
      "epoch": "2026-04-21T10:53:59.325504Z",
      "apogee_km": 1195.0898488083876,
      "perigee_km": 1192.3138612473567,
      "latitude_deg": -2.1252011794390584e-05,
      "longitude_deg": 4.09444363041862,
      "height_km": 1195.951139320154,
      "semi_major_axis_km": 7571.838855027872,
      "eccentricity": 0.00018331,
      "inclination_deg": 87.9194,
      "raan_deg": 17.1215,
      "arg_perigee_deg": 62.2399,
      "mean_anomaly_deg": 297.8918,
      "mean_motion_rev_day": 13.17651977
    },
    {
      "epoch": "2026-04-22T17:52:54.205248Z",
      "apogee_km": 1195.0576907941186,
      "perigee_km": 1192.3484864104157,
      "latitude_deg": -3.10536117551168e-05,
      "longitude_deg": -102.16290743776928,
      "height_km": 1195.9625915758727,
      "semi_major_axis_km": 7571.840088602266,
      "eccentricity": 0.0001789,
      "inclination_deg": 87.9195,
      "raan_deg": 16.8652,
      "arg_perigee_deg": 61.9809,
      "mean_anomaly_deg": 298.1503,
      "mean_motion_rev_day": 13.17651655
    },
    {
      "epoch": "2026-04-23T04:48:59.434560Z",
      "apogee_km": 1195.0418601602032,
      "perigee_km": 1192.3633976098808,
      "latitude_deg": 8.285477984718467e-07,
      "longitude_deg": 93.27602823806718,
      "height_km": 1195.966109429367,
      "semi_major_axis_km": 7571.839628885042,
      "eccentricity": 0.00017687,
      "inclination_deg": 87.9195,
      "raan_deg": 16.775,
      "arg_perigee_deg": 61.8221,
      "mean_anomaly_deg": 298.3089,
      "mean_motion_rev_day": 13.17651775
    },
    {
      "epoch": "2026-04-24T17:15:56.838240Z",
      "apogee_km": 1195.0019651012062,
      "perigee_km": 1192.4002815220365,
      "latitude_deg": -1.8451694490890235e-05,
      "longitude_deg": -95.26077521740132,
      "height_km": 1196.0253083299638,
      "semi_major_axis_km": 7571.8381233116215,
      "eccentricity": 0.0001718,
      "inclination_deg": 87.9191,
      "raan_deg": 16.4743,
      "arg_perigee_deg": 63.9273,
      "mean_anomaly_deg": 296.2035,
      "mean_motion_rev_day": 13.17652168
    }
  ]
}